[{"OBJECT_NAME":"STARLINK-31342","OBJECT_ID":"2024-044Q","EPOCH":"2026-03-09T19:15:48.623904","MEAN_MOTION":15.27566272,"ECCENTRICITY":7.647e-5,"INCLINATION":43.0028,"RA_OF_ASC_NODE":106.3237,"ARG_OF_PERICENTER":250.4263,"MEAN_ANOMALY":109.6507,"EPHEMERIS_TYPE":0,"CLASSIFICATION_TYPE":"U","NORAD_CAT_ID":59166,"ELEMENT_SET_NO":999,"REV_AT_EPOCH":11361,"BSTAR":-3.4448419e-5,"MEAN_MOTION_DOT":-1.209e-5,"MEAN_MOTION_DDOT":0},{"OBJECT_NAME":"LIME","OBJECT_ID":"2025-009AR","EPOCH":"2026-03-09T17:44:15.459648","MEAN_MOTION":15.28703313,"ECCENTRICITY":0.00016347,"INCLINATION":97.3985,"RA_OF_ASC_NODE":151.4831,"ARG_OF_PERICENTER":35.9029,"MEAN_ANOMALY":324.232,"EPHEMERIS_TYPE":0,"CLASSIFICATION_TYPE":"U","NORAD_CAT_ID":62648,"ELEMENT_SET_NO":999,"REV_AT_EPOCH":6376,"BSTAR":0.00047722827,"MEAN_MOTION_DOT":0.00013254,"MEAN_MOTION_DDOT":0}]
