STARLINK-31342          
1 59166U 24044Q   26068.80264610 -.00001209  00000+0 -34448-4 0  9990
2 59166  43.0028 106.3237 0000765 250.4263 109.6507 15.27566272113611
LIME                    
1 62648U 25009AR  26068.73906781  .00013254  00000+0  47723-3 0  9995
2 62648  97.3985 151.4831 0001635  35.9029 324.2320 15.28703313 63766
